{
  "type": "FeatureCollection",
  "features": [
    {
      "type": "Feature",
      "properties": {
        "norad_id": 39766,
        "name": "ALOS-2",
        "group": "resource",
        "lat": 22.421155733138505,
        "lon": 77.96587716830503,
        "alt_km": 630.4721284031339,
        "timestamp": "2025-12-12T09:49:08.384988+00:00",
        "meta_object_name": "ALOS-2",
        "meta_object_id": "2014-029A",
        "meta_epoch": "2025-12-12T04:50:50.551872",
        "meta_mean_motion": 14.79471728,
        "meta_eccentricity": 0.0001383,
        "meta_inclination": 97.9218,
        "meta_ra_of_asc_node": 81.0553,
        "meta_arg_of_pericenter": 100.0685,
        "meta_mean_anomaly": 260.0683,
        "meta_ephemeris_type": 0,
        "meta_classification_type": "U",
        "meta_norad_cat_id": 39766,
        "meta_element_set_no": 999,
        "meta_rev_at_epoch": 62393,
        "meta_bstar": 0.0006594,
        "meta_mean_motion_dot": 4.876e-05,
        "meta_mean_motion_ddot": 0,
        "tle_line1": "1 39766U 14029A   25346.20197398  .00004876  00000+0  65940-3 0  9997",
        "tle_line2": "2 39766  97.9218  81.0553 0001383 100.0685 260.0683 14.79471728623934"
      },
      "geometry": {
        "type": "Point",
        "coordinates": [
          77.96587716830503,
          22.421155733138505
        ]
      }
    },
    {
      "type": "Feature",
      "properties": {
        "norad_id": 40010,
        "name": "KAZEOSAT 2",
        "group": "resource",
        "lat": -72.1615971186671,
        "lon": -144.91759589572115,
        "alt_km": 619.2934295452542,
        "timestamp": "2025-12-12T09:49:08.384998+00:00",
        "meta_object_name": "KAZEOSAT 2",
        "meta_object_id": "2014-033A",
        "meta_epoch": "2025-12-12T03:40:59.206656",
        "meta_mean_motion": 14.85167987,
        "meta_eccentricity": 0.000757,
        "meta_inclination": 97.5506,
        "meta_ra_of_asc_node": 190.4983,
        "meta_arg_of_pericenter": 208.7826,
        "meta_mean_anomaly": 151.2973,
        "meta_ephemeris_type": 0,
        "meta_classification_type": "U",
        "meta_norad_cat_id": 40010,
        "meta_element_set_no": 999,
        "meta_rev_at_epoch": 62119,
        "meta_bstar": 0.00017387,
        "meta_mean_motion_dot": 1.439e-05,
        "meta_mean_motion_ddot": 0,
        "tle_line1": "1 40010U 14033A   25346.15346304  .00001439  00000+0  17387-3 0  9997",
        "tle_line2": "2 40010  97.5506 190.4983 0007570 208.7826 151.2973 14.85167987621198"
      },
      "geometry": {
        "type": "Point",
        "coordinates": [
          -144.91759589572115,
          -72.1615971186671
        ]
      }
    },
    {
      "type": "Feature",
      "properties": {
        "norad_id": 40011,
        "name": "HODOYOSHI-4",
        "group": "resource",
        "lat": 10.990810896211011,
        "lon": 173.8347339471571,
        "alt_km": 623.2768427567353,
        "timestamp": "2025-12-12T09:49:08.385009+00:00",
        "meta_object_name": "HODOYOSHI-4",
        "meta_object_id": "2014-033B",
        "meta_epoch": "2025-12-12T03:18:40.222656",
        "meta_mean_motion": 14.87475883,
        "meta_eccentricity": 0.002324,
        "meta_inclination": 97.5416,
        "meta_ra_of_asc_node": 175.0514,
        "meta_arg_of_pericenter": 202.7372,
        "meta_mean_anomaly": 157.2818,
        "meta_ephemeris_type": 0,
        "meta_classification_type": "U",
        "meta_norad_cat_id": 40011,
        "meta_element_set_no": 999,
        "meta_rev_at_epoch": 62099,
        "meta_bstar": 0.00025172,
        "meta_mean_motion_dot": 2.239e-05,
        "meta_mean_motion_ddot": 0,
        "tle_line1": "1 40011U 14033B   25346.13796554  .00002239  00000+0  25172-3 0  9992",
        "tle_line2": "2 40011  97.5416 175.0514 0023240 202.7372 157.2818 14.87475883620990"
      },
      "geometry": {
        "type": "Point",
        "coordinates": [
          173.8347339471571,
          10.990810896211011
        ]
      }
    },
    {
      "type": "Feature",
      "properties": {
        "norad_id": 40013,
        "name": "DEIMOS-2",
        "group": "resource",
        "lat": 17.84305514913763,
        "lon": 44.68528637069166,
        "alt_km": 588.9118858489855,
        "timestamp": "2025-12-12T09:49:08.385019+00:00",
        "meta_object_name": "DEIMOS-2",
        "meta_object_id": "2014-033D",
        "meta_epoch": "2025-12-12T04:16:14.573280",
        "meta_mean_motion": 14.92968364,
        "meta_eccentricity": 8.28e-05,
        "meta_inclination": 97.6059,
        "meta_ra_of_asc_node": 221.9966,
        "meta_arg_of_pericenter": 96.0329,
        "meta_mean_anomaly": 264.0986,
        "meta_ephemeris_type": 0,
        "meta_classification_type": "U",
        "meta_norad_cat_id": 40013,
        "meta_element_set_no": 999,
        "meta_rev_at_epoch": 60981,
        "meta_bstar": 0.0002916,
        "meta_mean_motion_dot": 2.974e-05,
        "meta_mean_motion_ddot": 0,
        "tle_line1": "1 40013U 14033D   25346.17794645  .00002974  00000+0  29160-3 0  9994",
        "tle_line2": "2 40013  97.6059 221.9966 0000828  96.0329 264.0986 14.92968364609819"
      },
      "geometry": {
        "type": "Point",
        "coordinates": [
          44.68528637069166,
          17.84305514913763
        ]
      }
    },
    {
      "type": "Feature",
      "properties": {
        "norad_id": 40015,
        "name": "HODOYOSHI-3",
        "group": "resource",
        "lat": -59.18985166596593,
        "lon": 165.23082709289474,
        "alt_km": 607.2332730410708,
        "timestamp": "2025-12-12T09:49:08.385029+00:00",
        "meta_object_name": "HODOYOSHI-3",
        "meta_object_id": "2014-033F",
        "meta_epoch": "2025-12-12T00:23:04.432128",
        "meta_mean_motion": 14.84802941,
        "meta_eccentricity": 0.0031888,
        "meta_inclination": 97.6199,
        "meta_ra_of_asc_node": 151.8825,
        "meta_arg_of_pericenter": 250.4066,
        "meta_mean_anomaly": 109.3706,
        "meta_ephemeris_type": 0,
        "meta_classification_type": "U",
        "meta_norad_cat_id": 40015,
        "meta_element_set_no": 999,
        "meta_rev_at_epoch": 61984,
        "meta_bstar": 0.00033502,
        "meta_mean_motion_dot": 2.817e-05,
        "meta_mean_motion_ddot": 0,
        "tle_line1": "1 40015U 14033F   25346.01602352  .00002817  00000+0  33502-3 0  9993",
        "tle_line2": "2 40015  97.6199 151.8825 0031888 250.4066 109.3706 14.84802941619849"
      },
      "geometry": {
        "type": "Point",
        "coordinates": [
          165.23082709289474,
          -59.18985166596593
        ]
      }
    },
    {
      "type": "Feature",
      "properties": {
        "norad_id": 40053,
        "name": "SPOT 7",
        "group": "resource",
        "lat": 50.287436954486026,
        "lon": 38.630891652511544,
        "alt_km": 685.3204324989974,
        "timestamp": "2025-12-12T09:49:08.385040+00:00",
        "meta_object_name": "SPOT 7",
        "meta_object_id": "2014-034A",
        "meta_epoch": "2025-12-12T04:39:16.034112",
        "meta_mean_motion": 14.6073333,
        "meta_eccentricity": 0.0001547,
        "meta_inclination": 98.0903,
        "meta_ra_of_asc_node": 48.2815,
        "meta_arg_of_pericenter": 88.2328,
        "meta_mean_anomaly": 271.905,
        "meta_ephemeris_type": 0,
        "meta_classification_type": "U",
        "meta_norad_cat_id": 40053,
        "meta_element_set_no": 999,
        "meta_rev_at_epoch": 60983,
        "meta_bstar": 0.00022927,
        "meta_mean_motion_dot": 1.072e-05,
        "meta_mean_motion_ddot": 0,
        "tle_line1": "1 40053U 14034A   25346.19393558  .00001072  00000+0  22927-3 0  9991",
        "tle_line2": "2 40053  98.0903  48.2815 0001547  88.2328 271.9050 14.60733330609839"
      },
      "geometry": {
        "type": "Point",
        "coordinates": [
          38.630891652511544,
          50.287436954486026
        ]
      }
    },
    {
      "type": "Feature",
      "properties": {
        "norad_id": 40072,
        "name": "SKYSAT-B",
        "group": "resource",
        "lat": -45.01864150468767,
        "lon": -61.43985553594946,
        "alt_km": 617.098639039621,
        "timestamp": "2025-12-12T09:49:08.385050+00:00",
        "meta_object_name": "SKYSAT-B",
        "meta_object_id": "2014-037D",
        "meta_epoch": "2025-12-11T17:52:40.490976",
        "meta_mean_motion": 14.87321925,
        "meta_eccentricity": 0.00060726,
        "meta_inclination": 98.3607,
        "meta_ra_of_asc_node": 289.3985,
        "meta_arg_of_pericenter": 153.0618,
        "meta_mean_anomaly": 207.0912,
        "meta_ephemeris_type": 0,
        "meta_classification_type": "U",
        "meta_norad_cat_id": 40072,
        "meta_element_set_no": 999,
        "meta_rev_at_epoch": 61809,
        "meta_bstar": 0.00033654656,
        "meta_mean_motion_dot": 2.978e-05,
        "meta_mean_motion_ddot": 0,
        "tle_line1": "1 40072U 14037D   25345.74491309  .00002978  00000+0  33655-3 0  9994",
        "tle_line2": "2 40072  98.3607 289.3985 0006072 153.0618 207.0912 14.87321925618098"
      },
      "geometry": {
        "type": "Point",
        "coordinates": [
          -61.43985553594946,
          -45.01864150468767
        ]
      }
    }
  ]
}